HAWK-2C                 
1 47502U 21006CT  26068.67595434  .00008129  00000+0  25493-3 0  9997
2 47502  97.2417 114.9961 0006943 184.0877 176.0310 15.33286436284247
STARLINK-35629          
1 66127U 25237P   26068.21352566  .00073697  00000+0  24750-2 0  9994
2 66127  53.1591  42.1174 0001323  92.2864 267.8288 15.30211335 22534
